NORAD_CAT_ID,OBJECT_NAME,OBJECT_TYPE,EPOCH,MEAN_MOTION,ECCENTRICITY,INCLINATION,RA_OF_ASC_NODE,ARG_OF_PERICENTER,MEAN_ANOMALY,BSTAR,MEAN_MOTION_DOT,MEAN_MOTION_DDOT,TLE_LINE0,TLE_LINE1,TLE_LINE2,SEMIMAJOR_AXIS,PERIOD,APOGEE,PERIGEE,DECAYED
52839.0,STARLINK-4048,PAYLOAD,2023-03-24 07:17:14,15.08984073,0.0001413,53.2151,208.6505,87.7213,272.3941,0.0090535,0.00147409,0.0,0 STARLINK-4048,1 52839U 22062K   23083.30363835  .00147409  00000-0  90535-2 0  9995,2 52839  53.2151 208.6505 0001413  87.7213 272.3941 15.08984073 43021,6917.44,95.428,540.282,538.328,0.0
52839.0,STARLINK-4048,PAYLOAD,2023-03-24 12:03:23,15.08940307,0.0001444,53.2151,207.7585,98.7171,261.3985,0.0053543,0.00086206,0.0,0 STARLINK-4048,1 52839U 22062K   23083.50235199  .00086206  00000-0  53543-2 0  9993,2 52839  53.2151 207.7585 0001444  98.7171 261.3985 15.08940307 43059,6917.574,95.431,540.438,538.44,0.0
52839.0,STARLINK-4048,PAYLOAD,2023-03-24 13:38:45,15.0894785,0.0001279,53.2153,207.4612,99.1591,260.9546,0.0049992,0.0008042,0.0,0 STARLINK-4048,1 52839U 22062K   23083.56858730  .00080420  00000-0  49992-2 0  9996,2 52839  53.2153 207.4612 0001279  99.1591 260.9546 15.08947850 42570,6917.551,95.431,540.301,538.531,0.0
52839.0,STARLINK-4048,PAYLOAD,2023-03-24 20:00:16,15.08967975,0.0001304,53.2152,206.2716,95.7159,264.3982,0.0028554,0.0004561,0.0,0 STARLINK-4048,1 52839U 22062K   23083.83352734  .00045610  00000-0  28554-2 0  9992,2 52839  53.2152 206.2716 0001304  95.7159 264.3982 15.08967975 43104,6917.489,95.429,540.256,538.452,0.0
52839.0,STARLINK-4048,PAYLOAD,2023-03-25 00:46:25,15.08884073,1.84e-05,53.2151,205.3803,28.1805,331.9197,0.00091387,0.00014304,0.0,0 STARLINK-4048,1 52839U 22062K   23084.03224457  .00014304  00000-0  91387-3 0  9996,2 52839  53.2151 205.3803 0000184  28.1805 331.9197 15.08884073 43132,6917.746,95.435,539.738,539.483,0.0
52839.0,STARLINK-4048,PAYLOAD,2023-03-25 11:54:10,15.08764629,0.0001295,53.2147,203.2985,83.1849,276.929,0.0030833,0.00049023,0.0,0 STARLINK-4048,1 52839U 22062K   23084.49595485  .00049023  00000-0  30833-2 0  9992,2 52839  53.2147 203.2985 0001295  83.1849 276.9290 15.08764629 43202,6918.111,95.442,540.872,539.08,0.0
52839.0,STARLINK-4048,PAYLOAD,2023-03-25 16:40:20,15.08781849,0.0001238,53.2145,202.4062,76.2658,283.8472,0.0032342,0.00051478,0.0,0 STARLINK-4048,1 52839U 22062K   23084.69468391  .00051478  00000-0  32342-2 0  9993,2 52839  53.2145 202.4062 0001238  76.2658 283.8472 15.08781849 42745,6918.058,95.441,540.78,539.067,0.0
52839.0,STARLINK-4048,PAYLOAD,2023-03-26 00:37:17,15.08789831,0.0001469,53.2143,200.9207,82.9971,277.1188,0.0021218,0.00033595,0.0,0 STARLINK-4048,1 52839U 22062K   23085.02589713  .00033595  00000-0  21218-2 0  9993,2 52839  53.2143 200.9207 0001469  82.9971 277.1188 15.08789831 43284,6918.034,95.441,540.915,538.882,0.0
52839.0,STARLINK-4048,PAYLOAD,2023-03-26 16:31:09,15.08830376,0.0001373,53.2145,197.9468,85.666,274.4489,0.0020395,0.00032311,0.0,0 STARLINK-4048,1 52839U 22062K   23085.68830932  .00032311  00000-0  20395-2 0  9997,2 52839  53.2145 197.9468 0001373  85.6660 274.4489 15.08830376 42890,6917.91,95.438,540.725,538.825,0.0
52839.0,STARLINK-4048,PAYLOAD,2023-03-27 13:11:10,15.08861387,0.0001399,53.2143,194.0826,84.573,275.5421,0.0014244,0.00022467,0.0,0 STARLINK-4048,1 52839U 22062K   23086.54942687  .00022467  00000-0  14244-2 0  9991,2 52839  53.2143 194.0826 0001399  84.5730 275.5421 15.08861387 43512,6917.815,95.436,540.648,538.712,0.0
52839.0,STARLINK-4048,PAYLOAD,2023-03-27 16:21:56,15.08872379,0.0001414,53.2144,193.4879,83.4904,276.6249,0.001651,0.00026109,0.0,0 STARLINK-4048,1 52839U 22062K   23086.68190361  .00026109  00000-0  16510-2 0  9995,2 52839  53.2144 193.4879 0001414  83.4904 276.6249 15.08872379 43044,6917.781,95.436,540.625,538.668,0.0
52839.0,STARLINK-4048,PAYLOAD,2023-03-28 00:18:52,15.08855543,0.0001755,53.2142,192.001,68.4202,291.6977,0.00095763,0.00014992,0.0,0 STARLINK-4048,1 52839U 22062K   23087.01310601  .00014992  00000-0  95763-3 0  9999,2 52839  53.2142 192.0010 0001755  68.4202 291.6977 15.08855543 43584,6917.833,95.437,540.912,538.484,0.0
52839.0,STARLINK-4048,PAYLOAD,2023-03-28 13:01:57,15.08854661,0.0001635,53.2143,189.6215,70.6565,289.4604,0.00052,8.001e-05,0.0,0 STARLINK-4048,1 52839U 22062K   23087.54302264  .00008001  00000-0  52000-3 0  9994,2 52839  53.2143 189.6215 0001635  70.6565 289.4604 15.08854661 43669,6917.836,95.437,540.832,538.57,0.0
52839.0,STARLINK-4048,PAYLOAD,2023-03-29 00:09:39,15.08852445,0.000176,53.2139,187.5412,63.9802,296.1371,0.0005426,8.361e-05,0.0,0 STARLINK-4048,1 52839U 22062K   23088.00670159  .00008361  00000-0  54260-3 0  9996,2 52839  53.2139 187.5412 0001760  63.9802 296.1371 15.08852445 43730,6917.842,95.437,540.925,538.49,0.0
52839.0,STARLINK-4048,PAYLOAD,2023-03-29 12:52:43,15.08849351,0.0001347,53.2155,185.1584,94.3071,265.8075,0.0003818,5.795e-05,0.0,0 STARLINK-4048,1 52839U 22062K   23088.53661954  .00005795  00000-0  38180-3 0  9998,2 52839  53.2155 185.1584 0001347  94.3071 265.8075 15.08849351 43320,6917.852,95.437,540.649,538.785,0.0
52839.0,STARLINK-4048,PAYLOAD,2023-03-29 17:38:52,15.08861528,7.58e-05,53.2139,184.2674,75.8176,284.29,0.00093804,0.00014681,0.0,0 STARLINK-4048,1 52839U 22062K   23088.73533206  .00014681  00000-0  93804-3 0  9996,2 52839  53.2139 184.2674 0000758  75.8176 284.2900 15.08861528 43352,6917.815,95.436,540.204,539.155,0.0
52839.0,STARLINK-4048,PAYLOAD,2023-03-30 06:21:58,15.08832936,0.0001211,53.2147,181.8915,66.8007,293.3113,-0.00013293,-2.402e-05,0.0,0 STARLINK-4048,1 52839U 22062K   23089.26526286 -.00002402  00000-0 -13293-3 0  9999,2 52839  53.2147 181.8915 0001211  66.8007 293.3113 15.08832936 43921,6917.902,95.438,540.605,538.929,0.0
52839.0,STARLINK-4048,PAYLOAD,2023-03-30 12:43:30,15.08849839,0.0001334,53.2137,180.6993,94.751,265.3634,0.0005146,7.914e-05,0.0,0 STARLINK-4048,1 52839U 22062K   23089.53021963  .00007914  00000-0  51460-3 0  9990,2 52839  53.2137 180.6993 0001334  94.7510 265.3634 15.08849839 43969,6917.85,95.437,540.638,538.792,0.0
52839.0,STARLINK-4048,PAYLOAD,2023-03-31 06:12:45,15.08852203,0.0001777,53.2149,177.427,88.7652,271.3543,0.0013354,0.00021036,0.0,0 STARLINK-4048,1 52839U 22062K   23090.25886201  .00021036  00000-0  13354-2 0  9995,2 52839  53.2149 177.4270 0001777  88.7652 271.3543 15.08852203 44073,6917.843,95.437,540.937,538.479,0.0
52839.0,STARLINK-4048,PAYLOAD,2023-04-01 06:03:33,15.08830144,0.0002283,53.2166,172.9733,106.4655,253.6588,0.0007441,0.00011571,0.0,0 STARLINK-4048,1 52839U 22062K   23091.25247037  .00011571  00000-0  74410-3 0  9998,2 52839  53.2166 172.9733 0002283 106.4655 253.6588 15.08830144 44229,6917.911,95.438,541.355,538.196,0.0
52839.0,STARLINK-4048,PAYLOAD,2023-04-01 12:25:06,15.08825813,0.000136,53.2155,171.7776,98.3904,261.7242,0.0014037,0.00022114,0.0,0 STARLINK-4048,1 52839U 22062K   23091.51743346  .00022114  00000-0  14037-2 0  9994,2 52839  53.2155 171.7776 0001360  98.3904 261.7242 15.08825813 43775,6917.924,95.438,540.73,538.848,0.0
52839.0,STARLINK-4048,PAYLOAD,2023-04-01 21:57:25,15.0884167,0.0001427,53.215,169.9937,91.9884,268.1271,0.0016749,0.0002647,0.0,0 STARLINK-4048,1 52839U 22062K   23091.91487653  .00026470  00000-0  16749-2 0  9995,2 52839  53.2150 169.9937 0001427  91.9884 268.1271 15.08841670 43837,6917.875,95.437,540.727,538.753,0.0
52839.0,STARLINK-4048,PAYLOAD,2023-04-02 12:15:53,15.08869554,0.0001408,53.2149,167.3185,90.8612,269.2542,0.0015923,0.00025165,0.0,0 STARLINK-4048,1 52839U 22062K   23092.51103011  .00025165  00000-0  15923-2 0  9998,2 52839  53.2149 167.3185 0001408  90.8612 269.2542 15.08869554 44417,6917.79,95.436,540.629,538.681,0.0
52839.0,STARLINK-4048,PAYLOAD,2023-04-02 21:48:11,15.08850865,0.0001278,53.2144,165.5345,97.7286,262.3851,0.00033891,5.112e-05,0.0,0 STARLINK-4048,1 52839U 22062K   23092.90846862  .00005112  00000-0  33891-3 0  9994,2 52839  53.2144 165.5345 0001278  97.7286 262.3851 15.08850865 43981,6917.847,95.437,540.596,538.828,0.0
52839.0,STARLINK-4048,PAYLOAD,2023-04-03 12:06:39,15.08847566,0.0001515,53.2147,162.8573,92.4863,267.6303,0.00031534,4.735e-05,0.0,0 STARLINK-4048,1 52839U 22062K   23093.50462906  .00004735  00000-0  31534-3 0  9996,2 52839  53.2147 162.8573 0001515  92.4863 267.6303 15.08847566 44563,6917.857,95.437,540.77,538.674,0.0
52839.0,STARLINK-4048,PAYLOAD,2023-04-03 13:42:03,15.0884911,0.0001515,53.2146,162.5597,91.6291,268.4875,0.00043767,6.686e-05,0.0,0 STARLINK-4048,1 52839U 22062K   23093.57086887  .00006686  00000-0  43767-3 0  9991,2 52839  53.2146 162.5597 0001515  91.6291 268.4875 15.08849110 44088,6917.853,95.437,540.766,538.669,0.0
52839.0,STARLINK-4048,PAYLOAD,2023-04-03 16:52:49,15.08853337,0.0001529,53.2143,161.9646,91.9148,268.2019,0.0006792,0.00010542,0.0,0 STARLINK-4048,1 52839U 22062K   23093.70334784  .00010542  00000-0  67920-3 0  9991,2 52839  53.2143 161.9646 0001529  91.9148 268.2019 15.08853337 44109,6917.84,95.437,540.762,538.647,0.0
52839.0,STARLINK-4048,PAYLOAD,2023-04-04 04:00:31,15.08846428,0.0001093,53.2136,159.8838,97.2957,262.8159,0.00081549,0.00012717,0.0,0 STARLINK-4048,1 52839U 22062K   23094.16703046  .00012717  00000-0  81549-3 0  9992,2 52839  53.2136 159.8838 0001093  97.2957 262.8159 15.08846428 44662,6917.861,95.437,540.482,538.97,0.0
52839.0,STARLINK-4048,PAYLOAD,2023-04-04 11:57:27,15.08854688,0.0001291,53.2138,158.3974,86.4669,273.6471,0.0016042,0.00025345,0.0,0 STARLINK-4048,1 52839U 22062K   23094.49822969  .00025345  00000-0  16042-2 0  9990,2 52839  53.2138 158.3974 0001291  86.4669 273.6471 15.08854688 44225,6917.835,95.437,540.594,538.807,0.0
52839.0,STARLINK-4048,PAYLOAD,2023-04-05 03:51:18,15.08848645,0.0001494,53.2151,155.4235,107.8923,252.2232,0.0010479,0.00016433,0.0,0 STARLINK-4048,1 52839U 22062K   23095.16063080  .00016433  00000-0  10479-2 0  9992,2 52839  53.2151 155.4235 0001494 107.8923 252.2232 15.08848645 44813,6917.854,95.437,540.752,538.685,0.0
